STARLINK-35964          
1 66796U 25278F   25355.49471721  .00471767  00000+0  22149-2 0  9994
2 66796  42.9910 197.3290 0001627 242.7833 117.2872 15.81102590  3235
STARLINK-36099          
1 66797U 25278G   25355.50002315 -.01982537  00000+0 -29221-1 0  9998
2 66797  42.9991 199.0253 0001746 260.4151 165.7797 15.58088544  4427
STARLINK-36041          
1 66798U 25278H   25355.50002315 -.01978585  00000+0 -29158-1 0  9996
2 66798  42.9991 199.0197 0001622 261.9791 166.1317 15.58087095  4203
STARLINK-36044          
1 66799U 25278J   25355.50002315 -.01980027  00000+0 -29181-1 0  9997
2 66799  42.9993 199.0157 0001667 262.5071 167.5208 15.58087274  4369
STARLINK-35996          
1 66800U 25278K   25355.50002315 -.01984364  00000+0 -29253-1 0  9998
2 66800  42.9994 199.0052 0001573 263.2493 170.6132 15.58089264  4158
STARLINK-36080          
1 66801U 25278L   25355.50002315 -.01979743  00000+0 -29178-1 0  9990
2 66801  42.9991 198.9801 0001592 262.8077 180.6400 15.58087122  4363
STARLINK-35604          
1 66802U 25278M   25355.50002315 -.01977412  00000+0 -29140-1 0  9991
2 66802  42.9993 199.0097 0001575 265.6725 166.2732 15.58085787  4360
STARLINK-35565          
1 66803U 25278N   25355.50002315 -.01978733  00000+0 -29159-1 0  9999
2 66803  42.9993 198.9998 0001671 262.0027 173.7754 15.58087468  4457
STARLINK-36038          
1 66804U 25278P   25355.50002315 -.01973492  00000+0 -29075-1 0  9994
2 66804  42.9993 198.9960 0001721 260.6103 177.0854 15.58083529  4364
STARLINK-36049          
1 66805U 25278Q   25355.50002315 -.01977978  00000+0 -29149-1 0  9990
2 66805  42.9989 198.9848 0001656 262.9881 178.5442 15.58085251  4363
STARLINK-36069          
1 66806U 25278R   25355.50002315 -.01973500  00000+0 -29077-1 0  9998
2 66806  42.9992 198.9901 0001608 263.8572 175.7586 15.58082771  4151
STARLINK-36000          
1 66807U 25278S   25355.50002315 -.01971339  00000+0 -29041-1 0  9998
2 66807  42.9988 198.9771 0001649 263.3301 182.0353 15.58082042  4426
