CCSDS_OMM_VERS = 2.0
CREATION_DATE  = 
ORIGINATOR     = 

OBJECT_NAME    = STARLINK-35964
OBJECT_ID      = 2025-278F
CENTER_NAME    = EARTH
REF_FRAME      = TEME
TIME_SYSTEM    = UTC
MEAN_ELEMENT_THEORY = SGP/SGP4

EPOCH          = 2025-12-21T11:52:23.566944
MEAN_MOTION    = 15.81102590
ECCENTRICITY   = .0001627
INCLINATION    = 42.9910
RA_OF_ASC_NODE = 197.3290
ARG_OF_PERICENTER = 242.7833
MEAN_ANOMALY   = 117.2872

EPHEMERIS_TYPE = 0
CLASSIFICATION_TYPE = U
NORAD_CAT_ID   = 66796
ELEMENT_SET_NO = 999
REV_AT_EPOCH   = 323
BSTAR          = .22149E-2
MEAN_MOTION_DOT = .471767E-2
MEAN_MOTION_DDOT = 0

CCSDS_OMM_VERS = 2.0
CREATION_DATE  = 
ORIGINATOR     = 

OBJECT_NAME    = STARLINK-36099
OBJECT_ID      = 2025-278G
CENTER_NAME    = EARTH
REF_FRAME      = TEME
TIME_SYSTEM    = UTC
MEAN_ELEMENT_THEORY = SGP/SGP4

EPOCH          = 2025-12-21T12:00:02.000160
MEAN_MOTION    = 15.58088544
ECCENTRICITY   = .0001746
INCLINATION    = 42.9991
RA_OF_ASC_NODE = 199.0253
ARG_OF_PERICENTER = 260.4151
MEAN_ANOMALY   = 165.7797

EPHEMERIS_TYPE = 0
CLASSIFICATION_TYPE = U
NORAD_CAT_ID   = 66797
ELEMENT_SET_NO = 999
REV_AT_EPOCH   = 442
BSTAR          = -.29221E-1
MEAN_MOTION_DOT = -.1982537E-1
MEAN_MOTION_DDOT = 0

CCSDS_OMM_VERS = 2.0
CREATION_DATE  = 
ORIGINATOR     = 

OBJECT_NAME    = STARLINK-36041
OBJECT_ID      = 2025-278H
CENTER_NAME    = EARTH
REF_FRAME      = TEME
TIME_SYSTEM    = UTC
MEAN_ELEMENT_THEORY = SGP/SGP4

EPOCH          = 2025-12-21T12:00:02.000160
MEAN_MOTION    = 15.58087095
ECCENTRICITY   = .0001622
INCLINATION    = 42.9991
RA_OF_ASC_NODE = 199.0197
ARG_OF_PERICENTER = 261.9791
MEAN_ANOMALY   = 166.1317

EPHEMERIS_TYPE = 0
CLASSIFICATION_TYPE = U
NORAD_CAT_ID   = 66798
ELEMENT_SET_NO = 999
REV_AT_EPOCH   = 420
BSTAR          = -.29158E-1
MEAN_MOTION_DOT = -.1978585E-1
MEAN_MOTION_DDOT = 0

CCSDS_OMM_VERS = 2.0
CREATION_DATE  = 
ORIGINATOR     = 

OBJECT_NAME    = STARLINK-36044
OBJECT_ID      = 2025-278J
CENTER_NAME    = EARTH
REF_FRAME      = TEME
TIME_SYSTEM    = UTC
MEAN_ELEMENT_THEORY = SGP/SGP4

EPOCH          = 2025-12-21T12:00:02.000160
MEAN_MOTION    = 15.58087274
ECCENTRICITY   = .0001667
INCLINATION    = 42.9993
RA_OF_ASC_NODE = 199.0157
ARG_OF_PERICENTER = 262.5071
MEAN_ANOMALY   = 167.5208

EPHEMERIS_TYPE = 0
CLASSIFICATION_TYPE = U
NORAD_CAT_ID   = 66799
ELEMENT_SET_NO = 999
REV_AT_EPOCH   = 436
BSTAR          = -.29181E-1
MEAN_MOTION_DOT = -.1980027E-1
MEAN_MOTION_DDOT = 0

CCSDS_OMM_VERS = 2.0
CREATION_DATE  = 
ORIGINATOR     = 

OBJECT_NAME    = STARLINK-35996
OBJECT_ID      = 2025-278K
CENTER_NAME    = EARTH
REF_FRAME      = TEME
TIME_SYSTEM    = UTC
MEAN_ELEMENT_THEORY = SGP/SGP4

EPOCH          = 2025-12-21T12:00:02.000160
MEAN_MOTION    = 15.58089264
ECCENTRICITY   = .0001573
INCLINATION    = 42.9994
RA_OF_ASC_NODE = 199.0052
ARG_OF_PERICENTER = 263.2493
MEAN_ANOMALY   = 170.6132

EPHEMERIS_TYPE = 0
CLASSIFICATION_TYPE = U
NORAD_CAT_ID   = 66800
ELEMENT_SET_NO = 999
REV_AT_EPOCH   = 415
BSTAR          = -.29253E-1
MEAN_MOTION_DOT = -.1984364E-1
MEAN_MOTION_DDOT = 0

CCSDS_OMM_VERS = 2.0
CREATION_DATE  = 
ORIGINATOR     = 

OBJECT_NAME    = STARLINK-36080
OBJECT_ID      = 2025-278L
CENTER_NAME    = EARTH
REF_FRAME      = TEME
TIME_SYSTEM    = UTC
MEAN_ELEMENT_THEORY = SGP/SGP4

EPOCH          = 2025-12-21T12:00:02.000160
MEAN_MOTION    = 15.58087122
ECCENTRICITY   = .0001592
INCLINATION    = 42.9991
RA_OF_ASC_NODE = 198.9801
ARG_OF_PERICENTER = 262.8077
MEAN_ANOMALY   = 180.6400

EPHEMERIS_TYPE = 0
CLASSIFICATION_TYPE = U
NORAD_CAT_ID   = 66801
ELEMENT_SET_NO = 999
REV_AT_EPOCH   = 436
BSTAR          = -.29178E-1
MEAN_MOTION_DOT = -.1979743E-1
MEAN_MOTION_DDOT = 0

CCSDS_OMM_VERS = 2.0
CREATION_DATE  = 
ORIGINATOR     = 

OBJECT_NAME    = STARLINK-35604
OBJECT_ID      = 2025-278M
CENTER_NAME    = EARTH
REF_FRAME      = TEME
TIME_SYSTEM    = UTC
MEAN_ELEMENT_THEORY = SGP/SGP4

EPOCH          = 2025-12-21T12:00:02.000160
MEAN_MOTION    = 15.58085787
ECCENTRICITY   = .0001575
INCLINATION    = 42.9993
RA_OF_ASC_NODE = 199.0097
ARG_OF_PERICENTER = 265.6725
MEAN_ANOMALY   = 166.2732

EPHEMERIS_TYPE = 0
CLASSIFICATION_TYPE = U
NORAD_CAT_ID   = 66802
ELEMENT_SET_NO = 999
REV_AT_EPOCH   = 436
BSTAR          = -.2914E-1
MEAN_MOTION_DOT = -.1977412E-1
MEAN_MOTION_DDOT = 0

CCSDS_OMM_VERS = 2.0
CREATION_DATE  = 
ORIGINATOR     = 

OBJECT_NAME    = STARLINK-35565
OBJECT_ID      = 2025-278N
CENTER_NAME    = EARTH
REF_FRAME      = TEME
TIME_SYSTEM    = UTC
MEAN_ELEMENT_THEORY = SGP/SGP4

EPOCH          = 2025-12-21T12:00:02.000160
MEAN_MOTION    = 15.58087468
ECCENTRICITY   = .0001671
INCLINATION    = 42.9993
RA_OF_ASC_NODE = 198.9998
ARG_OF_PERICENTER = 262.0027
MEAN_ANOMALY   = 173.7754

EPHEMERIS_TYPE = 0
CLASSIFICATION_TYPE = U
NORAD_CAT_ID   = 66803
ELEMENT_SET_NO = 999
REV_AT_EPOCH   = 445
BSTAR          = -.29159E-1
MEAN_MOTION_DOT = -.1978733E-1
MEAN_MOTION_DDOT = 0

CCSDS_OMM_VERS = 2.0
CREATION_DATE  = 
ORIGINATOR     = 

OBJECT_NAME    = STARLINK-36038
OBJECT_ID      = 2025-278P
CENTER_NAME    = EARTH
REF_FRAME      = TEME
TIME_SYSTEM    = UTC
MEAN_ELEMENT_THEORY = SGP/SGP4

EPOCH          = 2025-12-21T12:00:02.000160
MEAN_MOTION    = 15.58083529
ECCENTRICITY   = .0001721
INCLINATION    = 42.9993
RA_OF_ASC_NODE = 198.9960
ARG_OF_PERICENTER = 260.6103
MEAN_ANOMALY   = 177.0854

EPHEMERIS_TYPE = 0
CLASSIFICATION_TYPE = U
NORAD_CAT_ID   = 66804
ELEMENT_SET_NO = 999
REV_AT_EPOCH   = 436
BSTAR          = -.29075E-1
MEAN_MOTION_DOT = -.1973492E-1
MEAN_MOTION_DDOT = 0

CCSDS_OMM_VERS = 2.0
CREATION_DATE  = 
ORIGINATOR     = 

OBJECT_NAME    = STARLINK-36049
OBJECT_ID      = 2025-278Q
CENTER_NAME    = EARTH
REF_FRAME      = TEME
TIME_SYSTEM    = UTC
MEAN_ELEMENT_THEORY = SGP/SGP4

EPOCH          = 2025-12-21T12:00:02.000160
MEAN_MOTION    = 15.58085251
ECCENTRICITY   = .0001656
INCLINATION    = 42.9989
RA_OF_ASC_NODE = 198.9848
ARG_OF_PERICENTER = 262.9881
MEAN_ANOMALY   = 178.5442

EPHEMERIS_TYPE = 0
CLASSIFICATION_TYPE = U
NORAD_CAT_ID   = 66805
ELEMENT_SET_NO = 999
REV_AT_EPOCH   = 436
BSTAR          = -.29149E-1
MEAN_MOTION_DOT = -.1977978E-1
MEAN_MOTION_DDOT = 0

CCSDS_OMM_VERS = 2.0
CREATION_DATE  = 
ORIGINATOR     = 

OBJECT_NAME    = STARLINK-36069
OBJECT_ID      = 2025-278R
CENTER_NAME    = EARTH
REF_FRAME      = TEME
TIME_SYSTEM    = UTC
MEAN_ELEMENT_THEORY = SGP/SGP4

EPOCH          = 2025-12-21T12:00:02.000160
MEAN_MOTION    = 15.58082771
ECCENTRICITY   = .0001608
INCLINATION    = 42.9992
RA_OF_ASC_NODE = 198.9901
ARG_OF_PERICENTER = 263.8572
MEAN_ANOMALY   = 175.7586

EPHEMERIS_TYPE = 0
CLASSIFICATION_TYPE = U
NORAD_CAT_ID   = 66806
ELEMENT_SET_NO = 999
REV_AT_EPOCH   = 415
BSTAR          = -.29077E-1
MEAN_MOTION_DOT = -.19735E-1
MEAN_MOTION_DDOT = 0

CCSDS_OMM_VERS = 2.0
CREATION_DATE  = 
ORIGINATOR     = 

OBJECT_NAME    = STARLINK-36000
OBJECT_ID      = 2025-278S
CENTER_NAME    = EARTH
REF_FRAME      = TEME
TIME_SYSTEM    = UTC
MEAN_ELEMENT_THEORY = SGP/SGP4

EPOCH          = 2025-12-21T12:00:02.000160
MEAN_MOTION    = 15.58082042
ECCENTRICITY   = .0001649
INCLINATION    = 42.9988
RA_OF_ASC_NODE = 198.9771
ARG_OF_PERICENTER = 263.3301
MEAN_ANOMALY   = 182.0353

EPHEMERIS_TYPE = 0
CLASSIFICATION_TYPE = U
NORAD_CAT_ID   = 66807
ELEMENT_SET_NO = 999
REV_AT_EPOCH   = 442
BSTAR          = -.29041E-1
MEAN_MOTION_DOT = -.1971339E-1
MEAN_MOTION_DDOT = 0

